ONEWEB-0012             
1 44057U 19010A   23274.46824247 -.00000032  00000+0 -11793-3 0  9996
2 44057  87.9024  65.7862 0002702  85.6086 274.5354 13.16595722221332
ONEWEB-0010             
1 44058U 19010B   23274.49358953  .00000441  00000+0  11208-2 0  9998
2 44058  87.9017  65.7653 0001952  74.1169 286.0177 13.16590232221381
ONEWEB-0008             
1 44059U 19010C   23274.44291049  .00000039  00000+0  68060-4 0  9999
2 44059  87.9024  65.7697 0001602 102.0249 258.1061 13.16594027221490
ONEWEB-0007             
1 44060U 19010D   23274.52869517 -.00000077  00000+0 -23835-3 0  9995
2 44060  87.8944  96.2324 0002173  84.8850 275.2528 13.15545825221250
ONEWEB-0006             
1 44061U 19010E   23274.51603157  .00000042  00000+0  77711-4 0  9994
2 44061  87.8934  96.2362 0001957  79.1646 280.9704 13.15549082221305
ONEWEB-0011             
1 44062U 19010F   23274.57956191  .00000149  00000+0  36292-3 0  9996
2 44062  87.8938  96.2251 0001744  92.9244 267.2086 13.15551234221301
ONEWEB-0013             
1 45131U 20008A   23274.45908716  .00000591  00000+0  16802-2 0  9995
2 45131  87.9121 251.4686 0002688 101.8715 258.2713 13.09390055176549
ONEWEB-0017             
1 45132U 20008B   23274.40700740  .00000520  00000+0  14544-2 0  9991
2 45132  87.8863 232.8218 0002003  73.2324 286.9023 13.10379316178324
